{
  "type": "FeatureCollection",
  "features": [
    {
      "type": "Feature",
      "geometry": {
        "type": "LineString",
        "coordinates": [
          [
            108.628064513267,
            0.405569519145729
          ],
          [
            109.617920291692,
            0.091480666376128
          ],
          [
            111.445346344169,
            -0.336822314673327
          ],
          [
            113.617794242493,
            -0.824849766969123
          ]
        ]
      },
      "properties": {
        "nama": "Sesar Adang",
        "rank": "rank 1",
        "count": 4
      }
    },
    {
      "type": "Feature",
      "geometry": {
        "type": "LineString",
        "coordinates": [
          [
            113.665145516509,
            -0.836271179797109
          ],
          [
            113.831707786917,
            -0.871963094884563
          ]
        ]
      },
      "properties": {
        "nama": "Sesar Adang",
        "rank": "rank 1",
        "count": 2
      }
    },
    {
      "type": "Feature",
      "geometry": {
        "type": "LineString",
        "coordinates": [
          [
            113.872158624016,
            -0.881480938907885
          ],
          [
            114.033961972412,
            -0.905275548966188
          ]
        ]
      },
      "properties": {
        "nama": "Sesar Adang",
        "rank": "rank 1",
        "count": 2
      }
    },
    {
      "type": "Feature",
      "geometry": {
        "type": "LineString",
        "coordinates": [
          [
            119.273287246729,
            -3.90195882528798
          ],
          [
            118.994890309047,
            -3.62356188760583
          ],
          [
            118.837845882662,
            -3.30590384332748
          ],
          [
            118.752185286452,
            -3.20239728957387
          ],
          [
            118.513049455366,
            -2.92756954340047
          ],
          [
            118.366712603508,
            -2.72055643589323
          ],
          [
            118.206098985614,
            -2.49212817933352
          ],
          [
            118.016931835651,
            -2.37077566803617
          ],
          [
            117.633838613712,
            -2.17209067404934
          ],
          [
            116.521440593487,
            -1.73189038797074
          ],
          [
            116.009856477233,
            -1.54748216001889
          ],
          [
            115.742167114077,
            -1.36307393206704
          ],
          [
            115.35550470063,
            -1.20246031417349
          ]
        ]
      },
      "properties": {
        "nama": "Sesar Paternoster",
        "rank": "rank 1",
        "count": 13
      }
    },
    {
      "type": "Feature",
      "geometry": {
        "type": "LineString",
        "coordinates": [
          [
            117.507061819685,
            -2.12192231705455
          ],
          [
            117.31856003044,
            -1.87227858731472
          ],
          [
            117.052060397787,
            -1.51535943644018
          ],
          [
            116.842667829274,
            -1.31072578993877
          ],
          [
            116.780801843122,
            -1.12036890947235
          ],
          [
            116.77604292111,
            -0.977601249122529
          ]
        ]
      },
      "properties": {
        "nama": "Sesar Paternoster",
        "rank": "rank 1",
        "count": 6
      }
    },
    {
      "type": "Feature",
      "geometry": {
        "type": "LineString",
        "coordinates": [
          [
            116.970470388967,
            -1.90958132308054
          ],
          [
            116.899774893414,
            -1.79137691311649
          ],
          [
            116.737971545017,
            -1.63433248673169
          ],
          [
            116.342981018049,
            -1.32500255597375
          ],
          [
            116.190695513676,
            -1.23934195976386
          ]
        ]
      },
      "properties": {
        "nama": "Sesar Paternoster",
        "rank": "rank 1",
        "count": 5
      }
    },
    {
      "type": "Feature",
      "geometry": {
        "type": "LineString",
        "coordinates": [
          [
            116.862893247823,
            1.94021280927677
          ],
          [
            118.195391411088,
            0.821866136536698
          ],
          [
            119.373224608974,
            -0.320275146261906
          ]
        ]
      },
      "properties": {
        "nama": "Sesar Sangkulirang",
        "rank": "rank 1",
        "count": 3
      }
    },
    {
      "type": "Feature",
      "geometry": {
        "type": "LineString",
        "coordinates": [
          [
            119.263769402706,
            0.577971383439092
          ],
          [
            119.055566564696,
            0.905147271740759
          ],
          [
            118.460701313238,
            1.42862869302343
          ]
        ]
      },
      "properties": {
        "nama": "Sesar Mangkalihat",
        "rank": "rank 1",
        "count": 3
      }
    },
    {
      "type": "Feature",
      "geometry": {
        "type": "LineString",
        "coordinates": [
          [
            116.660639062328,
            1.96440399616938
          ],
          [
            116.432210805768,
            2.23090362882238
          ],
          [
            116.232336081278,
            2.81149211424497
          ],
          [
            116.165711173115,
            2.95425977459479
          ],
          [
            116.137157641045,
            3.14461665506121
          ],
          [
            116.003907824719,
            3.43966981978417
          ]
        ]
      },
      "properties": {
        "nama": "Sesar Sangkulirang",
        "rank": "rank 1",
        "count": 6
      }
    },
    {
      "type": "Feature",
      "geometry": {
        "type": "LineString",
        "coordinates": [
          [
            115.888107389101,
            3.6934789937394
          ],
          [
            115.638263983489,
            4.35972807537189
          ],
          [
            115.376523272848,
            4.59767417595492
          ],
          [
            114.960117596828,
            5.28771786764571
          ],
          [
            114.698376886186,
            5.5613558833162
          ]
        ]
      },
      "properties": {
        "nama": "Sesar Sangkulirang",
        "rank": "rank 1",
        "count": 5
      }
    },
    {
      "type": "Feature",
      "geometry": {
        "type": "LineString",
        "coordinates": [
          [
            118.423522235022,
            2.3839822868643
          ],
          [
            118.17367882941,
            2.87177179305934
          ],
          [
            117.995219253973,
            3.08592328358407
          ],
          [
            117.816759678535,
            3.21679363890473
          ],
          [
            117.245689037136,
            4.1090915160911
          ]
        ]
      },
      "properties": {
        "nama": "Sesar Sangkulirang",
        "rank": "rank 1",
        "count": 5
      }
    },
    {
      "type": "Feature",
      "geometry": {
        "type": "LineString",
        "coordinates": [
          [
            119.154016763812,
            4.61908932500739
          ],
          [
            118.068982545153,
            5.02835661801021
          ],
          [
            117.85958997664,
            5.07594583812681
          ],
          [
            117.57405465594,
            5.1140172142201
          ],
          [
            117.374179931451,
            5.2472670305466
          ],
          [
            117.231412271101,
            5.4756952871063
          ]
        ]
      },
      "properties": {
        "nama": "Sesar Sangkulirang",
        "rank": "rank 1",
        "count": 6
      }
    },
    {
      "type": "Feature",
      "geometry": {
        "type": "LineString",
        "coordinates": [
          [
            114.347981424236,
            2.99693144196613
          ],
          [
            113.519928994207,
            4.15334949079966
          ],
          [
            113.148733077297,
            4.61020600391907
          ],
          [
            113.020242182983,
            4.78152719633886
          ],
          [
            112.848920990563,
            5.19555341135333
          ]
        ]
      },
      "properties": {
        "nama": "Sesar Tinjia",
        "rank": "rank 1",
        "count": 5
      }
    },
    {
      "type": "Feature",
      "geometry": {
        "type": "LineString",
        "coordinates": [
          [
            114.148106699746,
            2.89699407972125
          ],
          [
            113.698388569644,
            2.73281127031896
          ],
          [
            113.191563375402,
            2.4686910986718
          ],
          [
            112.955996735825,
            2.42586080056685
          ],
          [
            112.577662435898,
            2.46155271565431
          ],
          [
            111.742471622852,
            2.76136480238893
          ],
          [
            110.92155757584,
            3.37526574189314
          ],
          [
            110.614607106088,
            3.56086370034791
          ],
          [
            110.229134423144,
            3.77501519087264
          ]
        ]
      },
      "properties": {
        "nama": "Sesar Tinjia",
        "rank": "rank 1",
        "count": 9
      }
    },
    {
      "type": "Feature",
      "geometry": {
        "type": "LineString",
        "coordinates": [
          [
            119.434039666515,
            -0.272844556879136
          ],
          [
            119.039644004798,
            -1.03843613550504
          ],
          [
            118.811215748239,
            -1.55239971276438
          ],
          [
            118.66487889638,
            -1.95452862274971
          ],
          [
            118.59944371872,
            -2.6088803993531
          ],
          [
            118.587546413691,
            -2.88251841502358
          ]
        ]
      },
      "properties": {
        "nama": "Sesar Tinjia",
        "rank": "rank 1",
        "count": 6
      }
    },
    {
      "type": "Feature",
      "geometry": {
        "type": "LineString",
        "coordinates": [
          [
            110.054799246783,
            -2.67491044226489
          ],
          [
            110.230879361214,
            -2.56545523599669
          ],
          [
            110.345093489494,
            -2.54166062593839
          ]
        ]
      },
      "properties": {
        "nama": "Sesar Tinjia",
        "rank": "rank 1",
        "count": 3
      }
    },
    {
      "type": "Feature",
      "geometry": {
        "type": "LineString",
        "coordinates": [
          [
            109.763077327468,
            2.24914616320058
          ],
          [
            110.890941844232,
            1.53530786145149
          ],
          [
            111.633333678051,
            1.14983517850681
          ],
          [
            111.854623551593,
            1.06417458229691
          ]
        ]
      },
      "properties": {
        "nama": "Sesar Tinjia",
        "rank": "rank 1",
        "count": 4
      }
    },
    {
      "type": "Feature",
      "geometry": {
        "type": "LineString",
        "coordinates": [
          [
            117.15902708442,
            7.5405122325991
          ],
          [
            117.416008873049,
            7.4619900194067
          ],
          [
            118.079878493676,
            6.62679920636026
          ]
        ]
      },
      "properties": {
        "nama": "Sesar Tinjia",
        "rank": "rank 1",
        "count": 3
      }
    }
  ]
}